{"type": "FeatureCollection", "features": [ {"type": "Feature", "properties": {"norad_id": 40115, "name": "WORLDVIEW-3 (WV-3)", "group": "resource", "lat": 27.853318815179794, "lon": 50.881527783110634, "alt_km": 613.9220350364612, "timestamp": "2025-12-08T17:43:04.551110+00:00", "meta": {"OBJECT_NAME": "WORLDVIEW-3 (WV-3)", "OBJECT_ID": "2014-048A", "EPOCH": "2025-12-08T06:16:30.893952", "MEAN_MOTION": 14.85495213, "ECCENTRICITY": 0.000442, "INCLINATION": 97.862, "RA_OF_ASC_NODE": 54.5981, "ARG_OF_PERICENTER": 200.3592, "MEAN_ANOMALY": 159.7448, "EPHEMERIS_TYPE": 0, "CLASSIFICATION_TYPE": "U", "NORAD_CAT_ID": 40115, "ELEMENT_SET_NO": 999, "REV_AT_EPOCH": 61357, "BSTAR": 0.00026806638, "MEAN_MOTION_DOT": 2.26e-05, "MEAN_MOTION_DDOT": 0}, "tle": {"line1": "1 40115U 14048A   25342.26146868  .00002260  00000+0  26807-3 0  9990", "line2": "2 40115  97.8620  54.5981 0004420 200.3592 159.7448 14.85495213613570"}}, "geometry": {"type": "Point", "coordinates": [50.881527783110634, 27.853318815179794]}}, {"type": "Feature", "properties": {"norad_id": 40118, "name": "GAOFEN-2", "group": "resource", "lat": -79.90461864247438, "lon": 94.4420853084377, "alt_km": 639.9805685223046, "timestamp": "2025-12-08T17:43:04.551121+00:00", "meta": {"OBJECT_NAME": "GAOFEN-2", "OBJECT_ID": "2014-049A", "EPOCH": "2025-12-08T06:44:35.623968", "MEAN_MOTION": 14.80597252, "ECCENTRICITY": 0.00084278, "INCLINATION": 98.0391, "RA_OF_ASC_NODE": 41.4416, "ARG_OF_PERICENTER": 125.856, "MEAN_ANOMALY": 234.3435, "EPHEMERIS_TYPE": 0, "CLASSIFICATION_TYPE": "U", "NORAD_CAT_ID": 40118, "ELEMENT_SET_NO": 999, "REV_AT_EPOCH": 61098, "BSTAR": 0.0002217257, "MEAN_MOTION_DOT": 1.648e-05, "MEAN_MOTION_DDOT": 0}, "tle": {"line1": "1 40118U 14049A   25342.28096787  .00001648  00000+0  22173-3 0  9991", "line2": "2 40118  98.0391  41.4416 0008427 125.8560 234.3435 14.80597252610985"}}, "geometry": {"type": "Point", "coordinates": [94.4420853084377, -79.90461864247438]}}, {"type": "Feature", "properties": {"norad_id": 40143, "name": "YAOGAN-21", "group": "resource", "lat": -19.304579184987393, "lon": 28.754196126467143, "alt_km": 498.2091259682775, "timestamp": "2025-12-08T17:43:04.551131+00:00", "meta": {"OBJECT_NAME": "YAOGAN-21", "OBJECT_ID": "2014-053A", "EPOCH": "2025-12-08T06:46:10.089408", "MEAN_MOTION": 15.23596222, "ECCENTRICITY": 0.00099922, "INCLINATION": 97.1757, "RA_OF_ASC_NODE": 25.7885, "ARG_OF_PERICENTER": 55.4301, "MEAN_ANOMALY": 304.7878, "EPHEMERIS_TYPE": 0, "CLASSIFICATION_TYPE": "U", "NORAD_CAT_ID": 40143, "ELEMENT_SET_NO": 999, "REV_AT_EPOCH": 62586, "BSTAR": 0.0003647566, "MEAN_MOTION_DOT": 8.677e-05, "MEAN_MOTION_DDOT": 0}, "tle": {"line1": "1 40143U 14053A   25342.28206122  .00008677  00000+0  36476-3 0  9990", "line2": "2 40143  97.1757  25.7885 0009992  55.4301 304.7878 15.23596222625863"}}, "geometry": {"type": "Point", "coordinates": [28.754196126467143, -19.304579184987393]}}, {"type": "Feature", "properties": {"norad_id": 40275, "name": "YAOGAN-22", "group": "resource", "lat": -68.57214376567406, "lon": 155.0262367950079, "alt_km": 1205.1626783656693, "timestamp": "2025-12-08T17:43:04.551142+00:00", "meta": {"OBJECT_NAME": "YAOGAN-22", "OBJECT_ID": "2014-063A", "EPOCH": "2025-12-08T07:07:42.504672", "MEAN_MOTION": 13.1552248, "ECCENTRICITY": 0.00059245, "INCLINATION": 100.7419, "RA_OF_ASC_NODE": 125.6538, "ARG_OF_PERICENTER": 258.978, "MEAN_ANOMALY": 101.0665, "EPHEMERIS_TYPE": 0, "CLASSIFICATION_TYPE": "U", "NORAD_CAT_ID": 40275, "ELEMENT_SET_NO": 999, "REV_AT_EPOCH": 53471, "BSTAR": 0.00010354436, "MEAN_MOTION_DOT": -8e-08, "MEAN_MOTION_DDOT": 0}, "tle": {"line1": "1 40275U 14063A   25342.29701973 -.00000008  00000+0  10354-3 0  9990", "line2": "2 40275 100.7419 125.6538 0005924 258.9780 101.0665 13.15522480534711"}}, "geometry": {"type": "Point", "coordinates": [155.0262367950079, -68.57214376567406]}}, {"type": "Feature", "properties": {"norad_id": 40298, "name": "ASNARO", "group": "resource", "lat": 82.5743856249247, "lon": -24.185273124753532, "alt_km": 497.6131362037049, "timestamp": "2025-12-08T17:43:04.551153+00:00", "meta": {"OBJECT_NAME": "ASNARO", "OBJECT_ID": "2014-070A", "EPOCH": "2025-12-08T06:15:46.503360", "MEAN_MOTION": 15.19351297, "ECCENTRICITY": 0.00053844, "INCLINATION": 97.3653, "RA_OF_ASC_NODE": 58.3175, "ARG_OF_PERICENTER": 134.4426, "MEAN_ANOMALY": 225.7251, "EPHEMERIS_TYPE": 0, "CLASSIFICATION_TYPE": "U", "NORAD_CAT_ID": 40298, "ELEMENT_SET_NO": 999, "REV_AT_EPOCH": 61501, "BSTAR": 0.00059967978, "MEAN_MOTION_DOT": 0.00012625, "MEAN_MOTION_DDOT": 0}, "tle": {"line1": "1 40298U 14070A   25342.26095490  .00012625  00000+0  59968-3 0  9991", "line2": "2 40298  97.3653  58.3175 0005384 134.4426 225.7251 15.19351297615011"}}, "geometry": {"type": "Point", "coordinates": [-24.185273124753532, 82.5743856249247]}}, {"type": "Feature", "properties": {"norad_id": 40310, "name": "YAOGAN-24", "group": "resource", "lat": -36.12010620919879, "lon": 119.79263304169397, "alt_km": 657.9279252191618, "timestamp": "2025-12-08T17:43:04.551164+00:00", "meta": {"OBJECT_NAME": "YAOGAN-24", "OBJECT_ID": "2014-072A", "EPOCH": "2025-12-08T06:29:45.190752", "MEAN_MOTION": 14.76163314, "ECCENTRICITY": 0.00145452, "INCLINATION": 98.1225, "RA_OF_ASC_NODE": 113.3404, "ARG_OF_PERICENTER": 151.8528, "MEAN_ANOMALY": 208.347, "EPHEMERIS_TYPE": 0, "CLASSIFICATION_TYPE": "U", "NORAD_CAT_ID": 40310, "ELEMENT_SET_NO": 999, "REV_AT_EPOCH": 59555, "BSTAR": 0.00028186261, "MEAN_MOTION_DOT": 1.898e-05, "MEAN_MOTION_DDOT": 0}, "tle": {"line1": "1 40310U 14072A   25342.27066193  .00001898  00000+0  28186-3 0  9995", "line2": "2 40310  98.1225 113.3404 0014545 151.8528 208.3470 14.76163314595551"}}, "geometry": {"type": "Point", "coordinates": [119.79263304169397, -36.12010620919879]}}, {"type": "Feature", "properties": {"norad_id": 40336, "name": "CBERS 4", "group": "resource", "lat": -69.51652581353376, "lon": 63.989028176132095, "alt_km": 781.7074135210942, "timestamp": "2025-12-08T17:43:04.551174+00:00", "meta": {"OBJECT_NAME": "CBERS 4", "OBJECT_ID": "2014-079A", "EPOCH": "2025-12-08T06:20:22.020864", "MEAN_MOTION": 14.35515403, "ECCENTRICITY": 0.00015493, "INCLINATION": 98.3316, "RA_OF_ASC_NODE": 40.4341, "ARG_OF_PERICENTER": 119.6029, "MEAN_ANOMALY": 240.5312, "EPHEMERIS_TYPE": 0, "CLASSIFICATION_TYPE": "U", "NORAD_CAT_ID": 40336, "ELEMENT_SET_NO": 999, "REV_AT_EPOCH": 57656, "BSTAR": 0.00012414744, "MEAN_MOTION_DOT": 3.15e-06, "MEAN_MOTION_DDOT": 0}, "tle": {"line1": "1 40336U 14079A   25342.26414376  .00000315  00000+0  12415-3 0  9990", "line2": "2 40336  98.3316  40.4341 0001549 119.6029 240.5312 14.35515403576568"}}, "geometry": {"type": "Point", "coordinates": [63.989028176132095, -69.51652581353376]}}, {"type": "Feature", "properties": {"norad_id": 40362, "name": "YAOGAN-26", "group": "resource", "lat": -12.023457217356377, "lon": 162.04118523131086, "alt_km": 457.3878134186634, "timestamp": "2025-12-08T17:43:04.551186+00:00", "meta": {"OBJECT_NAME": "YAOGAN-26", "OBJECT_ID": "2014-088A", "EPOCH": "2025-12-08T05:57:49.872096", "MEAN_MOTION": 15.3906085, "ECCENTRICITY": 0.00067273, "INCLINATION": 97.0644, "RA_OF_ASC_NODE": 343.0825, "ARG_OF_PERICENTER": 42.6768, "MEAN_ANOMALY": 317.5, "EPHEMERIS_TYPE": 0, "CLASSIFICATION_TYPE": "U", "NORAD_CAT_ID": 40362, "ELEMENT_SET_NO": 999, "REV_AT_EPOCH": 60825, "BSTAR": 0.00057748778, "MEAN_MOTION_DOT": 0.00022318, "MEAN_MOTION_DDOT": 0}, "tle": {"line1": "1 40362U 14088A   25342.24849389  .00022318  00000+0  57749-3 0  9999", "line2": "2 40362  97.0644 343.0825 0006727  42.6768 317.5000 15.39060850608251"}}, "geometry": {"type": "Point", "coordinates": [162.04118523131086, -12.023457217356377]}}, {"type": "Feature", "properties": {"norad_id": 40376, "name": "SMAP", "group": "resource", "lat": 81.74349282530561, "lon": -112.41707663486805, "alt_km": 674.1056581920329, "timestamp": "2025-12-08T17:43:04.551196+00:00", "meta": {"OBJECT_NAME": "SMAP", "OBJECT_ID": "2015-003A", "EPOCH": "2025-12-08T05:48:51.710688", "MEAN_MOTION": 14.63336671, "ECCENTRICITY": 0.00012077, "INCLINATION": 98.129, "RA_OF_ASC_NODE": 347.0309, "ARG_OF_PERICENTER": 88.0587, "MEAN_ANOMALY": 272.0753, "EPHEMERIS_TYPE": 0, "CLASSIFICATION_TYPE": "U", "NORAD_CAT_ID": 40376, "ELEMENT_SET_NO": 999, "REV_AT_EPOCH": 57969, "BSTAR": 0.00022433365, "MEAN_MOTION_DOT": 1.111e-05, "MEAN_MOTION_DDOT": 0}, "tle": {"line1": "1 40376U 15003A   25342.24226517  .00001111  00000+0  22433-3 0  9994", "line2": "2 40376  98.1290 347.0309 0001207  88.0587 272.0753 14.63336671579695"}}, "geometry": {"type": "Point", "coordinates": [-112.41707663486805, 81.74349282530561]}}, {"type": "Feature", "properties": {"norad_id": 40536, "name": "KOMPSAT-3A", "group": "resource", "lat": 64.28015361077173, "lon": -59.40278201782981, "alt_km": 427.8241418487323, "timestamp": "2025-12-08T17:43:04.551207+00:00", "meta": {"OBJECT_NAME": "KOMPSAT-3A", "OBJECT_ID": "2015-014A", "EPOCH": "2025-12-08T04:59:24.178272", "MEAN_MOTION": 15.43697985, "ECCENTRICITY": 0.00044147, "INCLINATION": 97.679, "RA_OF_ASC_NODE": 316.3046, "ARG_OF_PERICENTER": 136.5669, "MEAN_ANOMALY": 223.5926, "EPHEMERIS_TYPE": 0, "CLASSIFICATION_TYPE": "U", "NORAD_CAT_ID": 40536, "ELEMENT_SET_NO": 999, "REV_AT_EPOCH": 59225, "BSTAR": 0.00050968421, "MEAN_MOTION_DOT": 0.00022947, "MEAN_MOTION_DDOT": 0}, "tle": {"line1": "1 40536U 15014A   25342.20791873  .00022947  00000+0  50968-3 0  9996", "line2": "2 40536  97.6790 316.3046 0004414 136.5669 223.5926 15.43697985592259"}}, "geometry": {"type": "Point", "coordinates": [-59.40278201782981, 64.28015361077173]}}]}